[{"OBJECT_NAME":"KUIPER-00027","OBJECT_ID":"2025-088S","EPOCH":"2026-03-06T10:03:15.330816","MEAN_MOTION":14.79949606,"ECCENTRICITY":7.728e-5,"INCLINATION":51.9001,"RA_OF_ASC_NODE":110.0473,"ARG_OF_PERICENTER":86.0039,"MEAN_ANOMALY":274.1011,"EPHEMERIS_TYPE":0,"CLASSIFICATION_TYPE":"U","NORAD_CAT_ID":63740,"ELEMENT_SET_NO":999,"REV_AT_EPOCH":4713,"BSTAR":0.00077547194,"MEAN_MOTION_DOT":5.698e-5,"MEAN_MOTION_DDOT":0},{"OBJECT_NAME":"KUIPER-00028","OBJECT_ID":"2025-088T","EPOCH":"2026-03-04T08:41:10.281984","MEAN_MOTION":14.80003574,"ECCENTRICITY":6.242e-5,"INCLINATION":51.8989,"RA_OF_ASC_NODE":116.6123,"ARG_OF_PERICENTER":77.0276,"MEAN_ANOMALY":283.0756,"EPHEMERIS_TYPE":0,"CLASSIFICATION_TYPE":"U","NORAD_CAT_ID":63741,"ELEMENT_SET_NO":999,"REV_AT_EPOCH":4727,"BSTAR":0.00051058241,"MEAN_MOTION_DOT":3.68e-5,"MEAN_MOTION_DDOT":0},{"OBJECT_NAME":"KUIPER-00029","OBJECT_ID":"2025-088U","EPOCH":"2026-03-06T14:22:40.994112","MEAN_MOTION":14.83291899,"ECCENTRICITY":5.426e-5,"INCLINATION":51.9006,"RA_OF_ASC_NODE":104.326,"ARG_OF_PERICENTER":90.1486,"MEAN_ANOMALY":269.954,"EPHEMERIS_TYPE":0,"CLASSIFICATION_TYPE":"U","NORAD_CAT_ID":63742,"ELEMENT_SET_NO":999,"REV_AT_EPOCH":4716,"BSTAR":-0.01076361,"MEAN_MOTION_DOT":-0.00088017,"MEAN_MOTION_DDOT":0},{"OBJECT_NAME":"KUIPER-00030","OBJECT_ID":"2025-088V","EPOCH":"2026-03-06T12:54:31.307904","MEAN_MOTION":14.79937776,"ECCENTRICITY":0.00108294,"INCLINATION":51.9005,"RA_OF_ASC_NODE":124.4835,"ARG_OF_PERICENTER":61.5137,"MEAN_ANOMALY":298.6915,"EPHEMERIS_TYPE":0,"CLASSIFICATION_TYPE":"U","NORAD_CAT_ID":63743,"ELEMENT_SET_NO":999,"REV_AT_EPOCH":4716,"BSTAR":0.00073276295,"MEAN_MOTION_DOT":5.372e-5,"MEAN_MOTION_DDOT":0},{"OBJECT_NAME":"KUIPER-00031","OBJECT_ID":"2025-088W","EPOCH":"2026-03-06T09:41:38.694048","MEAN_MOTION":14.83628845,"ECCENTRICITY":0.00020984,"INCLINATION":51.8995,"RA_OF_ASC_NODE":110.3056,"ARG_OF_PERICENTER":133.4329,"MEAN_ANOMALY":226.681,"EPHEMERIS_TYPE":0,"CLASSIFICATION_TYPE":"U","NORAD_CAT_ID":63744,"ELEMENT_SET_NO":999,"REV_AT_EPOCH":4706,"BSTAR":0.00070684926,"MEAN_MOTION_DOT":5.665e-5,"MEAN_MOTION_DDOT":0},{"OBJECT_NAME":"KUIPER-00032","OBJECT_ID":"2025-088X","EPOCH":"2026-03-06T08:28:08.274720","MEAN_MOTION":15.3718833,"ECCENTRICITY":0.00053283,"INCLINATION":51.8704,"RA_OF_ASC_NODE":40.3582,"ARG_OF_PERICENTER":100.8537,"MEAN_ANOMALY":259.3049,"EPHEMERIS_TYPE":0,"CLASSIFICATION_TYPE":"U","NORAD_CAT_ID":63745,"ELEMENT_SET_NO":999,"REV_AT_EPOCH":4903,"BSTAR":0.00055542548,"MEAN_MOTION_DOT":0.00020213,"MEAN_MOTION_DDOT":0},{"OBJECT_NAME":"KUIPER-00033","OBJECT_ID":"2025-088Y","EPOCH":"2026-03-06T09:18:44.566848","MEAN_MOTION":14.8343013,"ECCENTRICITY":8.228e-5,"INCLINATION":51.9002,"RA_OF_ASC_NODE":140.5379,"ARG_OF_PERICENTER":42.9589,"MEAN_ANOMALY":317.1439,"EPHEMERIS_TYPE":0,"CLASSIFICATION_TYPE":"U","NORAD_CAT_ID":63746,"ELEMENT_SET_NO":999,"REV_AT_EPOCH":4712,"BSTAR":0.0008260957,"MEAN_MOTION_DOT":6.627e-5,"MEAN_MOTION_DDOT":0},{"OBJECT_NAME":"KUIPER-00034","OBJECT_ID":"2025-088Z","EPOCH":"2026-03-06T13:05:13.169184","MEAN_MOTION":14.83521973,"ECCENTRICITY":0.00017759,"INCLINATION":51.9004,"RA_OF_ASC_NODE":102.1759,"ARG_OF_PERICENTER":340.7193,"MEAN_ANOMALY":19.3703,"EPHEMERIS_TYPE":0,"CLASSIFICATION_TYPE":"U","NORAD_CAT_ID":63747,"ELEMENT_SET_NO":999,"REV_AT_EPOCH":4735,"BSTAR":0.00012266006,"MEAN_MOTION_DOT":7.91e-6,"MEAN_MOTION_DDOT":0},{"OBJECT_NAME":"KUIPER-00035","OBJECT_ID":"2025-088AA","EPOCH":"2026-03-06T14:00:33.992064","MEAN_MOTION":14.83269519,"ECCENTRICITY":0.00039696,"INCLINATION":51.8992,"RA_OF_ASC_NODE":127.6745,"ARG_OF_PERICENTER":65.1635,"MEAN_ANOMALY":294.9741,"EPHEMERIS_TYPE":0,"CLASSIFICATION_TYPE":"U","NORAD_CAT_ID":63748,"ELEMENT_SET_NO":999,"REV_AT_EPOCH":4705,"BSTAR":0.00098613016,"MEAN_MOTION_DOT":7.926e-5,"MEAN_MOTION_DDOT":0},{"OBJECT_NAME":"KUIPER-00037","OBJECT_ID":"2025-088AB","EPOCH":"2026-03-06T12:50:36.741408","MEAN_MOTION":14.79961394,"ECCENTRICITY":8.751e-5,"INCLINATION":51.8993,"RA_OF_ASC_NODE":127.0104,"ARG_OF_PERICENTER":59.2774,"MEAN_ANOMALY":300.8274,"EPHEMERIS_TYPE":0,"CLASSIFICATION_TYPE":"U","NORAD_CAT_ID":63749,"ELEMENT_SET_NO":999,"REV_AT_EPOCH":4784,"BSTAR":0.00092548583,"MEAN_MOTION_DOT":6.846e-5,"MEAN_MOTION_DDOT":0},{"OBJECT_NAME":"KUIPER-00038","OBJECT_ID":"2025-088AC","EPOCH":"2026-03-06T13:13:53.000832","MEAN_MOTION":14.79957975,"ECCENTRICITY":8.862e-5,"INCLINATION":51.9044,"RA_OF_ASC_NODE":111.9759,"ARG_OF_PERICENTER":29.5105,"MEAN_ANOMALY":330.5907,"EPHEMERIS_TYPE":0,"CLASSIFICATION_TYPE":"U","NORAD_CAT_ID":63750,"ELEMENT_SET_NO":999,"REV_AT_EPOCH":4705,"BSTAR":0.00043859474,"MEAN_MOTION_DOT":3.126e-5,"MEAN_MOTION_DDOT":0},{"OBJECT_NAME":"KUIPER-00039","OBJECT_ID":"2025-134A","EPOCH":"2026-03-06T12:34:35.378976","MEAN_MOTION":14.79943872,"ECCENTRICITY":0.00010618,"INCLINATION":51.8997,"RA_OF_ASC_NODE":247.0906,"ARG_OF_PERICENTER":68.6746,"MEAN_ANOMALY":291.433,"EPHEMERIS_TYPE":0,"CLASSIFICATION_TYPE":"U","NORAD_CAT_ID":64500,"ELEMENT_SET_NO":999,"REV_AT_EPOCH":3960,"BSTAR":0.00062956168,"MEAN_MOTION_DOT":4.583e-5,"MEAN_MOTION_DDOT":0},{"OBJECT_NAME":"KUIPER-00040","OBJECT_ID":"2025-134B","EPOCH":"2026-03-06T12:16:23.187072","MEAN_MOTION":14.79997679,"ECCENTRICITY":0.00130246,"INCLINATION":51.8994,"RA_OF_ASC_NODE":258.288,"ARG_OF_PERICENTER":256.5462,"MEAN_ANOMALY":103.4049,"EPHEMERIS_TYPE":0,"CLASSIFICATION_TYPE":"U","NORAD_CAT_ID":64501,"ELEMENT_SET_NO":999,"REV_AT_EPOCH":3944,"BSTAR":0.00064628271,"MEAN_MOTION_DOT":4.72e-5,"MEAN_MOTION_DDOT":0},{"OBJECT_NAME":"KUIPER-00041","OBJECT_ID":"2025-134C","EPOCH":"2026-03-06T05:56:13.839360","MEAN_MOTION":14.78717324,"ECCENTRICITY":0.00072132,"INCLINATION":51.8984,"RA_OF_ASC_NODE":260.8785,"ARG_OF_PERICENTER":254.0812,"MEAN_ANOMALY":105.9356,"EPHEMERIS_TYPE":0,"CLASSIFICATION_TYPE":"U","NORAD_CAT_ID":64502,"ELEMENT_SET_NO":999,"REV_AT_EPOCH":3938,"BSTAR":0.00062516473,"MEAN_MOTION_DOT":4.415e-5,"MEAN_MOTION_DDOT":0},{"OBJECT_NAME":"KUIPER-00042","OBJECT_ID":"2025-134D","EPOCH":"2026-03-06T12:20:19.739904","MEAN_MOTION":14.79965457,"ECCENTRICITY":0.00071003,"INCLINATION":51.8972,"RA_OF_ASC_NODE":255.6339,"ARG_OF_PERICENTER":270.8636,"MEAN_ANOMALY":89.1513,"EPHEMERIS_TYPE":0,"CLASSIFICATION_TYPE":"U","NORAD_CAT_ID":64503,"ELEMENT_SET_NO":999,"REV_AT_EPOCH":3948,"BSTAR":0.00063794603,"MEAN_MOTION_DOT":4.65e-5,"MEAN_MOTION_DDOT":0},{"OBJECT_NAME":"KUIPER-00043","OBJECT_ID":"2025-134E","EPOCH":"2026-03-05T21:23:43.064160","MEAN_MOTION":14.83803217,"ECCENTRICITY":9.947e-5,"INCLINATION":51.9013,"RA_OF_ASC_NODE":249.9165,"ARG_OF_PERICENTER":325.355,"MEAN_ANOMALY":34.7349,"EPHEMERIS_TYPE":0,"CLASSIFICATION_TYPE":"U","NORAD_CAT_ID":64504,"ELEMENT_SET_NO":999,"REV_AT_EPOCH":3951,"BSTAR":0.00058232696,"MEAN_MOTION_DOT":4.646e-5,"MEAN_MOTION_DDOT":0}]
